TEVEL2-7                
1 63238U 25052AE  26068.66113295  .00019244  00000+0  69668-3 0  9998
2 63238  97.4054 324.3041 0008105 124.6830 235.5175 15.28414096 54803
STARLINK-34403          
1 64443U 25130F   26068.47634522  .00022848  00000+0  78102-3 0  9991
2 64443  53.1588  89.2962 0000846  88.1397 271.9700 15.30206311 40678
